<?xml version="1.0" encoding="UTF-8"?>
<kml xmlns="http://www.opengis.net/kml/2.2" xmlns:gx="http://www.google.com/kml/ext/2.2" xmlns:kml="http://www.opengis.net/kml/2.2" xmlns:atom="http://www.w3.org/2005/Atom">
<Document id="document">
	<name>input1</name>
	<gx:CascadingStyle kml:id="__managed_style_085FEEE0B54126B550E1_highlight">
		<styleUrl>https://earth.google.com/balloon_components/base/1.1.0.0/card_template.kml#main</styleUrl>
		<Style>
			<IconStyle>
				<scale>1.2</scale>
				<Icon>
					<href>https://earth.google.com/earth/document/icon?color=1976d2&amp;id=2000&amp;scale=4</href>
				</Icon>
				<hotSpot x="64" y="128" xunits="pixels" yunits="insetPixels"/>
			</IconStyle>
			<LabelStyle>
			</LabelStyle>
			<LineStyle>
				<color>ff2dc0fb</color>
				<width>3.84</width>
			</LineStyle>
			<PolyStyle>
				<color>40ffffff</color>
			</PolyStyle>
			<BalloonStyle>
			</BalloonStyle>
		</Style>
	</gx:CascadingStyle>
	<gx:CascadingStyle kml:id="__managed_style_085FEEE0B54126B550E1_normal">
		<styleUrl>https://earth.google.com/balloon_components/base/1.1.0.0/card_template.kml#main</styleUrl>
		<Style>
			<IconStyle>
				<Icon>
					<href>https://earth.google.com/earth/document/icon?color=1976d2&amp;id=2000&amp;scale=4</href>
				</Icon>
				<hotSpot x="64" y="128" xunits="pixels" yunits="insetPixels"/>
			</IconStyle>
			<LabelStyle>
			</LabelStyle>
			<LineStyle>
				<color>ff2dc0fb</color>
				<width>2.56</width>
			</LineStyle>
			<PolyStyle>
				<color>40ffffff</color>
			</PolyStyle>
			<BalloonStyle>
			</BalloonStyle>
		</Style>
	</gx:CascadingStyle>
	<StyleMap id="__managed_style_085FEEE0B54126B550E1">
		<Pair>
			<key>normal</key>
			<styleUrl>#__managed_style_085FEEE0B54126B550E1_normal</styleUrl>
		</Pair>
		<Pair>
			<key>highlight</key>
			<styleUrl>#__managed_style_085FEEE0B54126B550E1_highlight</styleUrl>
		</Pair>
	</StyleMap>
	<Placemark id="5E04649F9C000001">
		<name>A</name>
		<LookAt>
			<longitude>73.76860240722564</longitude>
			<latitude>18.42934460817998</latitude>
			<altitude>623.3592487643567</altitude>
			<heading>0</heading>
			<tilt>0</tilt>
			<gx:fovy>35</gx:fovy>
			<range>248.0262488832159</range>
			<altitudeMode>absolute</altitudeMode>
		</LookAt>
		<styleUrl>#__managed_style_085FEEE0B54126B550E1</styleUrl>
		<Point>
			<coordinates>73.76806846105106,18.42915646695818,611.0948857845573</coordinates>
		</Point>
	</Placemark>
	<Placemark id="5E04649F9C000002">
		<name>B</name>
		<LookAt>
			<longitude>73.76860240722564</longitude>
			<latitude>18.42934460817998</latitude>
			<altitude>623.3592487643567</altitude>
			<heading>0</heading>
			<tilt>0</tilt>
			<gx:fovy>35</gx:fovy>
			<range>248.0262488832159</range>
			<altitudeMode>absolute</altitudeMode>
		</LookAt>
		<styleUrl>#__managed_style_085FEEE0B54126B550E1</styleUrl>
		<Point>
			<coordinates>73.76911132985292,18.4292996679292,632.4532192429884</coordinates>
		</Point>
	</Placemark>
	<Placemark id="5E04649F9C000003">
		<name>C</name>
		<LookAt>
			<longitude>73.76860240722564</longitude>
			<latitude>18.42934460817998</latitude>
			<altitude>623.3592487643567</altitude>
			<heading>0</heading>
			<tilt>0</tilt>
			<gx:fovy>35</gx:fovy>
			<range>248.0262488832159</range>
			<altitudeMode>absolute</altitudeMode>
		</LookAt>
		<styleUrl>#__managed_style_085FEEE0B54126B550E1</styleUrl>
		<Point>
			<coordinates>73.76882571278938,18.42949054279819,626.2588391161668</coordinates>
		</Point>
	</Placemark>
	<Placemark id="5E04649F9C000004">
		<name>C</name>
		<LookAt>
			<longitude>73.76877661102179</longitude>
			<latitude>18.42927098771744</latitude>
			<altitude>627.8303850466432</altitude>
			<heading>0</heading>
			<tilt>0</tilt>
			<gx:fovy>35</gx:fovy>
			<range>243.5550813683222</range>
			<altitudeMode>absolute</altitudeMode>
		</LookAt>
		<styleUrl>#__managed_style_085FEEE0B54126B550E1</styleUrl>
		<Point>
			<coordinates>73.76880675431025,18.42913816040779,629.3139396373697</coordinates>
		</Point>
	</Placemark>
	<Placemark id="5E04649F9C000005">
		<name>C</name>
		<LookAt>
			<longitude>73.76879388579221</longitude>
			<latitude>18.42897450420127</latitude>
			<altitude>629.3952264052319</altitude>
			<heading>0</heading>
			<tilt>0</tilt>
			<gx:fovy>35</gx:fovy>
			<range>241.9902457475474</range>
			<altitudeMode>absolute</altitudeMode>
		</LookAt>
		<styleUrl>#__managed_style_085FEEE0B54126B550E1</styleUrl>
		<Point>
			<coordinates>73.76887139073712,18.42883307096859,630.0388405614167</coordinates>
		</Point>
	</Placemark>
	<Placemark id="5E04649F9C000006">
		<name>G</name>
		<LookAt>
			<longitude>73.76813359206061</longitude>
			<latitude>18.42856769779866</latitude>
			<altitude>612.326967446905</altitude>
			<heading>0</heading>
			<tilt>0</tilt>
			<gx:fovy>35</gx:fovy>
			<range>259.0585312248731</range>
			<altitudeMode>absolute</altitudeMode>
		</LookAt>
		<styleUrl>#__managed_style_085FEEE0B54126B550E1</styleUrl>
		<Point>
			<coordinates>73.76781065368631,18.42864593025609,607.8830194096037</coordinates>
		</Point>
	</Placemark>
	<Placemark id="5E04649F9C000007">
		<name>G</name>
		<LookAt>
			<longitude>73.76797565988637</longitude>
			<latitude>18.4283396903307</latitude>
			<altitude>610.5616278618797</altitude>
			<heading>0</heading>
			<tilt>0</tilt>
			<gx:fovy>35</gx:fovy>
			<range>260.82385308011</range>
			<altitudeMode>absolute</altitudeMode>
		</LookAt>
		<styleUrl>#__managed_style_085FEEE0B54126B550E1</styleUrl>
		<Point>
			<coordinates>73.76750027543925,18.42791943260123,607.6186016618348</coordinates>
		</Point>
	</Placemark>
	<Placemark id="5E04649F9C000008">
		<name>A</name>
		<LookAt>
			<longitude>73.76810179069581</longitude>
			<latitude>18.42910511458481</latitude>
			<altitude>611.9483402067109</altitude>
			<heading>0</heading>
			<tilt>0</tilt>
			<gx:fovy>35</gx:fovy>
			<range>117.3627758573093</range>
			<altitudeMode>absolute</altitudeMode>
		</LookAt>
		<styleUrl>#__managed_style_085FEEE0B54126B550E1</styleUrl>
		<Point>
			<coordinates>73.768234673089,18.42945138440956,612.6114580482177</coordinates>
		</Point>
	</Placemark>
	<Placemark id="5E04649F9C00000A">
		<name>B</name>
		<LookAt>
			<longitude>73.76738784734357</longitude>
			<latitude>18.4270445104901</latitude>
			<altitude>609.2736547427869</altitude>
			<heading>9.313491099884523</heading>
			<tilt>0</tilt>
			<gx:fovy>35</gx:fovy>
			<range>65.12093045237634</range>
			<altitudeMode>absolute</altitudeMode>
		</LookAt>
		<styleUrl>#__managed_style_085FEEE0B54126B550E1</styleUrl>
		<Point>
			<coordinates>73.76750023442989,18.4270416374689,609.5195533934458</coordinates>
		</Point>
	</Placemark>
	<Placemark id="5E04649F9C00000B">
		<name>A</name>
		<LookAt>
			<longitude>73.76738784734357</longitude>
			<latitude>18.4270445104901</latitude>
			<altitude>609.2736547427869</altitude>
			<heading>9.313491099884523</heading>
			<tilt>0</tilt>
			<gx:fovy>35</gx:fovy>
			<range>65.12093045237634</range>
			<altitudeMode>absolute</altitudeMode>
		</LookAt>
		<styleUrl>#__managed_style_085FEEE0B54126B550E1</styleUrl>
		<Point>
			<coordinates>73.76728755515366,18.42713515349622,608.5055605657294</coordinates>
		</Point>
	</Placemark>
	<Placemark id="5E04649F9C00000C">
		<name>B</name>
		<LookAt>
			<longitude>73.76817193778675</longitude>
			<latitude>18.42639936944904</latitude>
			<altitude>613.0324141884214</altitude>
			<heading>9.313689974417446</heading>
			<tilt>0</tilt>
			<gx:fovy>35</gx:fovy>
			<range>121.6009969098377</range>
			<altitudeMode>absolute</altitudeMode>
		</LookAt>
		<styleUrl>#__managed_style_085FEEE0B54126B550E1</styleUrl>
		<Point>
			<coordinates>73.7679801844712,18.4264584906511,611.5084804538162</coordinates>
		</Point>
	</Placemark>
	<Placemark id="0A75C188984126B70A20">
		<name>A</name>
		<LookAt>
			<longitude>73.76841135746837</longitude>
			<latitude>18.42999864038739</latitude>
			<altitude>612.7602817744422</altitude>
			<heading>67.43433652969111</heading>
			<tilt>0</tilt>
			<gx:fovy>30.00000283531246</gx:fovy>
			<range>282.9681255276228</range>
			<altitudeMode>absolute</altitudeMode>
		</LookAt>
		<styleUrl>#__managed_style_085FEEE0B54126B550E1</styleUrl>
		<Point>
			<coordinates>73.76851234289231,18.4298286441511,615.3812595870857</coordinates>
		</Point>
	</Placemark>
</Document>
</kml>
