<?xml version="1.0" encoding="UTF-8"?>
<kml xmlns="http://www.opengis.net/kml/2.2" xmlns:gx="http://www.google.com/kml/ext/2.2" xmlns:kml="http://www.opengis.net/kml/2.2" xmlns:atom="http://www.w3.org/2005/Atom">
<Document id="document">
	<name>INPUT NEW</name>
	<gx:CascadingStyle kml:id="__managed_style_0138CBA11B41937B26B0_normal">
		<styleUrl>https://earth.google.com/balloon_components/base/1.1.0.0/card_template.kml#main</styleUrl>
		<Style>
			<IconStyle>
				<Icon>
					<href>https://earth.google.com/earth/document/icon?color=1976d2&amp;id=2000&amp;scale=4</href>
				</Icon>
				<hotSpot x="64" y="128" xunits="pixels" yunits="insetPixels"/>
			</IconStyle>
			<LabelStyle>
			</LabelStyle>
			<LineStyle>
				<color>ff2dc0fb</color>
				<width>2</width>
			</LineStyle>
			<PolyStyle>
				<color>40ffffff</color>
			</PolyStyle>
			<BalloonStyle>
			</BalloonStyle>
		</Style>
	</gx:CascadingStyle>
	<gx:CascadingStyle kml:id="__managed_style_0138CBA11B41937B26B0_highlight">
		<styleUrl>https://earth.google.com/balloon_components/base/1.1.0.0/card_template.kml#main</styleUrl>
		<Style>
			<IconStyle>
				<scale>1.2</scale>
				<Icon>
					<href>https://earth.google.com/earth/document/icon?color=1976d2&amp;id=2000&amp;scale=4</href>
				</Icon>
				<hotSpot x="64" y="128" xunits="pixels" yunits="insetPixels"/>
			</IconStyle>
			<LabelStyle>
			</LabelStyle>
			<LineStyle>
				<color>ff2dc0fb</color>
				<width>3</width>
			</LineStyle>
			<PolyStyle>
				<color>40ffffff</color>
			</PolyStyle>
			<BalloonStyle>
			</BalloonStyle>
		</Style>
	</gx:CascadingStyle>
	<StyleMap id="__managed_style_0138CBA11B41937B26B0">
		<Pair>
			<key>normal</key>
			<styleUrl>#__managed_style_0138CBA11B41937B26B0_normal</styleUrl>
		</Pair>
		<Pair>
			<key>highlight</key>
			<styleUrl>#__managed_style_0138CBA11B41937B26B0_highlight</styleUrl>
		</Pair>
	</StyleMap>
	<Placemark id="060ACD918841937B26A1">
		<name>X</name>
		<LookAt>
			<longitude>73.16358911577136</longitude>
			<latitude>18.9557423484205</latitude>
			<altitude>43.09006614565435</altitude>
			<heading>0</heading>
			<tilt>0</tilt>
			<gx:fovy>35</gx:fovy>
			<range>251.7646565943506</range>
			<altitudeMode>absolute</altitudeMode>
		</LookAt>
		<styleUrl>#__managed_style_0138CBA11B41937B26B0</styleUrl>
		<Point>
			<coordinates>73.16362368259674,18.95563388011248,44.15726155273381</coordinates>
		</Point>
	</Placemark>
	<Placemark id="0BDEF5B18341937B4E78">
		<name>A</name>
		<LookAt>
			<longitude>73.16301984624315</longitude>
			<latitude>18.95585473346332</latitude>
			<altitude>43.22987571955218</altitude>
			<heading>0</heading>
			<tilt>0</tilt>
			<gx:fovy>35</gx:fovy>
			<range>251.6248493150124</range>
			<altitudeMode>absolute</altitudeMode>
		</LookAt>
		<styleUrl>#__managed_style_0138CBA11B41937B26B0</styleUrl>
		<Point>
			<coordinates>73.16343715607235,18.95560294453201,44.52582159189454</coordinates>
		</Point>
	</Placemark>
	<Placemark id="0F34F0293241937B6F9B">
		<name>A</name>
		<LookAt>
			<longitude>73.16295137063352</longitude>
			<latitude>18.95593395286155</latitude>
			<altitude>42.65702802963151</altitude>
			<heading>0</heading>
			<tilt>0</tilt>
			<gx:fovy>35</gx:fovy>
			<range>252.1976836831891</range>
			<altitudeMode>absolute</altitudeMode>
		</LookAt>
		<styleUrl>#__managed_style_0138CBA11B41937B26B0</styleUrl>
		<Point>
			<coordinates>73.16325207822756,18.95565883473237,44.61794503190804</coordinates>
		</Point>
	</Placemark>
	<Placemark id="0EC084A8AF41937B88FF">
		<name>B</name>
		<LookAt>
			<longitude>73.16295137063352</longitude>
			<latitude>18.95593395286155</latitude>
			<altitude>42.65702802963151</altitude>
			<heading>0</heading>
			<tilt>0</tilt>
			<gx:fovy>35</gx:fovy>
			<range>252.1976836831891</range>
			<altitudeMode>absolute</altitudeMode>
		</LookAt>
		<styleUrl>#__managed_style_0138CBA11B41937B26B0</styleUrl>
		<Point>
			<coordinates>73.16286207163309,18.95576028096886,43.63244010363613</coordinates>
		</Point>
	</Placemark>
	<Placemark id="0CC5AF9FD741937BA787">
		<name>B</name>
		<LookAt>
			<longitude>73.16230228577014</longitude>
			<latitude>18.95614398473227</latitude>
			<altitude>39.95519859072928</altitude>
			<heading>0</heading>
			<tilt>0</tilt>
			<gx:fovy>35</gx:fovy>
			<range>254.8995196181568</range>
			<altitudeMode>absolute</altitudeMode>
		</LookAt>
		<styleUrl>#__managed_style_0138CBA11B41937B26B0</styleUrl>
		<Point>
			<coordinates>73.16235306069348,18.9558960189231,41.85067098591846</coordinates>
		</Point>
	</Placemark>
	<Placemark id="0485D2DE1C41937BBAFF">
		<name>C</name>
		<LookAt>
			<longitude>73.16206688911723</longitude>
			<latitude>18.95619656344212</latitude>
			<altitude>40.91642414761463</altitude>
			<heading>0</heading>
			<tilt>0</tilt>
			<gx:fovy>35</gx:fovy>
			<range>253.9382982175085</range>
			<altitudeMode>absolute</altitudeMode>
		</LookAt>
		<styleUrl>#__managed_style_0138CBA11B41937B26B0</styleUrl>
		<Point>
			<coordinates>73.16163386008614,18.95608337271332,43.03414976421904</coordinates>
		</Point>
	</Placemark>
	<Placemark id="041AB3442B41937BDF10">
		<name>C</name>
		<LookAt>
			<longitude>73.16130372601633</longitude>
			<latitude>18.95636465531868</latitude>
			<altitude>41.91593472596412</altitude>
			<heading>0</heading>
			<tilt>0</tilt>
			<gx:fovy>35</gx:fovy>
			<range>252.9387874227177</range>
			<altitudeMode>absolute</altitudeMode>
		</LookAt>
		<styleUrl>#__managed_style_0138CBA11B41937B26B0</styleUrl>
		<Point>
			<coordinates>73.16083247278473,18.95630247858436,39.72807065361765</coordinates>
		</Point>
	</Placemark>
	<Placemark id="0722DED94641937BF108">
		<name>C</name>
		<LookAt>
			<longitude>73.16043253213488</longitude>
			<latitude>18.95659398164122</latitude>
			<altitude>40.12871159827484</altitude>
			<heading>0</heading>
			<tilt>0</tilt>
			<gx:fovy>35</gx:fovy>
			<range>254.7260121093496</range>
			<altitudeMode>absolute</altitudeMode>
		</LookAt>
		<styleUrl>#__managed_style_0138CBA11B41937B26B0</styleUrl>
		<Point>
			<coordinates>73.15990314126537,18.95657673992096,38.27367559354116</coordinates>
		</Point>
	</Placemark>
	<Placemark id="0D3AD8271841937C0480">
		<name>D</name>
		<LookAt>
			<longitude>73.15963480384474</longitude>
			<latitude>18.95675926607861</latitude>
			<altitude>37.23534243299473</altitude>
			<heading>0</heading>
			<tilt>0</tilt>
			<gx:fovy>35</gx:fovy>
			<range>257.6193877254263</range>
			<altitudeMode>absolute</altitudeMode>
		</LookAt>
		<styleUrl>#__managed_style_0138CBA11B41937B26B0</styleUrl>
		<Point>
			<coordinates>73.1594489671857,18.95670528326585,37.60586405616164</coordinates>
		</Point>
	</Placemark>
	<Placemark id="0020353AC641937C3E2E">
		<name>A</name>
		<LookAt>
			<longitude>73.15909767867343</longitude>
			<latitude>18.95711705807141</latitude>
			<altitude>36.88056880594672</altitude>
			<heading>0</heading>
			<tilt>0</tilt>
			<gx:fovy>35</gx:fovy>
			<range>257.9741672388263</range>
			<altitudeMode>absolute</altitudeMode>
		</LookAt>
		<styleUrl>#__managed_style_0138CBA11B41937B26B0</styleUrl>
		<Point>
			<coordinates>73.15884612425802,18.95688445239654,38.21103156871747</coordinates>
		</Point>
	</Placemark>
	<Placemark id="08077E695A41937C5484">
		<name>X</name>
		<LookAt>
			<longitude>73.15765959977541</longitude>
			<latitude>18.95732617563119</latitude>
			<altitude>35.97715557057322</altitude>
			<heading>0</heading>
			<tilt>0</tilt>
			<gx:fovy>35</gx:fovy>
			<range>258.8775837066715</range>
			<altitudeMode>absolute</altitudeMode>
		</LookAt>
		<styleUrl>#__managed_style_0138CBA11B41937B26B0</styleUrl>
		<Point>
			<coordinates>73.15726292536094,18.95731042871974,37.78069050391525</coordinates>
		</Point>
	</Placemark>
	<Placemark id="06608CA7A041937C9507">
		<name>A</name>
		<LookAt>
			<longitude>73.15666254228444</longitude>
			<latitude>18.95770500056837</latitude>
			<altitude>36.667223421787</altitude>
			<heading>0</heading>
			<tilt>0</tilt>
			<gx:fovy>35</gx:fovy>
			<range>418.5462810209721</range>
			<altitudeMode>absolute</altitudeMode>
		</LookAt>
		<styleUrl>#__managed_style_0138CBA11B41937B26B0</styleUrl>
		<Point>
			<coordinates>73.15644589687085,18.95751998126028,35.69038008999711</coordinates>
		</Point>
	</Placemark>
	<Placemark id="0AEAF2BA0D41937CA914">
		<name>B</name>
		<LookAt>
			<longitude>73.15608210172751</longitude>
			<latitude>18.95781116525661</latitude>
			<altitude>35.4509598994844</altitude>
			<heading>0</heading>
			<tilt>0</tilt>
			<gx:fovy>35</gx:fovy>
			<range>419.7625487249752</range>
			<altitudeMode>absolute</altitudeMode>
		</LookAt>
		<styleUrl>#__managed_style_0138CBA11B41937B26B0</styleUrl>
		<Point>
			<coordinates>73.1560198834719,18.95763551500253,35.75118367988884</coordinates>
		</Point>
	</Placemark>
	<Placemark id="012D127FA441937CBA44">
		<name>X</name>
		<LookAt>
			<longitude>73.1555164129576</longitude>
			<latitude>18.95807244388476</latitude>
			<altitude>34.26365387057685</altitude>
			<heading>0</heading>
			<tilt>0</tilt>
			<gx:fovy>35</gx:fovy>
			<range>420.9498907849775</range>
			<altitudeMode>absolute</altitudeMode>
		</LookAt>
		<styleUrl>#__managed_style_0138CBA11B41937B26B0</styleUrl>
		<Point>
			<coordinates>73.15534400867961,18.95781297352309,34.49802291327421</coordinates>
		</Point>
	</Placemark>
	<Placemark id="09A960AF5341937CC970">
		<name>B</name>
		<LookAt>
			<longitude>73.15505792051624</longitude>
			<latitude>18.95817451580948</latitude>
			<altitude>32.58252677547486</altitude>
			<heading>0</heading>
			<tilt>0</tilt>
			<gx:fovy>35</gx:fovy>
			<range>422.631054776939</range>
			<altitudeMode>absolute</altitudeMode>
		</LookAt>
		<styleUrl>#__managed_style_0138CBA11B41937B26B0</styleUrl>
		<Point>
			<coordinates>73.15483630402719,18.95794727434885,33.87039375632769</coordinates>
		</Point>
	</Placemark>
	<Placemark id="0B40FC820241937CD90F">
		<name>B</name>
		<LookAt>
			<longitude>73.15434844573696</longitude>
			<latitude>18.95831399497162</latitude>
			<altitude>34.05714956055803</altitude>
			<heading>0</heading>
			<tilt>0</tilt>
			<gx:fovy>35</gx:fovy>
			<range>421.1563568400744</range>
			<altitudeMode>absolute</altitudeMode>
		</LookAt>
		<styleUrl>#__managed_style_0138CBA11B41937B26B0</styleUrl>
		<Point>
			<coordinates>73.15413775498325,18.95813664160173,34.34743566089264</coordinates>
		</Point>
	</Placemark>
	<Placemark id="05965202C641937CE88E">
		<name>X</name>
		<LookAt>
			<longitude>73.15383892915087</longitude>
			<latitude>18.95842615488572</latitude>
			<altitude>34.12146558520215</altitude>
			<heading>0</heading>
			<tilt>0</tilt>
			<gx:fovy>35</gx:fovy>
			<range>421.0920621794503</range>
			<altitudeMode>absolute</altitudeMode>
		</LookAt>
		<styleUrl>#__managed_style_0138CBA11B41937B26B0</styleUrl>
		<Point>
			<coordinates>73.15283544864384,18.95846159987616,40.55895306900052</coordinates>
		</Point>
	</Placemark>
	<Placemark id="070813D2A541937CF959">
		<name>A</name>
		<LookAt>
			<longitude>73.15262919917674</longitude>
			<latitude>18.95864930105521</latitude>
			<altitude>42.03555941182343</altitude>
			<heading>0</heading>
			<tilt>0</tilt>
			<gx:fovy>35</gx:fovy>
			<range>413.1779781676596</range>
			<altitudeMode>absolute</altitudeMode>
		</LookAt>
		<styleUrl>#__managed_style_0138CBA11B41937B26B0</styleUrl>
		<Point>
			<coordinates>73.15237504056867,18.95861356744237,41.93238307206563</coordinates>
		</Point>
	</Placemark>
</Document>
</kml>
